OBJECT B                
1 51825U 22019B   25149.89813980  .00024384  00000+0  60944-3 0  9998
2 51825  97.3853 226.4270 0011893  92.0025 268.2583 15.40060894180258
